IRIDIUM 921 [-]         
1 24873U 97034E   24044.37011570  .00032803  00000+0  10695-2 0  9993
2 24873  86.3894 349.4986 0006275  46.1434 314.0333 15.31646234456310
IRIDIUM 26 [-]          
1 24903U 97043A   24044.48438316  .00000912  00000+0  30620-3 0  9997
2 24903  86.3985 316.1075 0001916  83.3547 276.7868 14.36205405386909
IRIDIUM 22 [-]          
1 24907U 97043E   24044.16498899  .00000742  00000+0  25320-3 0  9990
2 24907  86.3993 319.3785 0002168  84.4419 275.7025 14.35101313386462
DUMMY MASS 1 [-]        
1 24925U 97048A   24044.15600311  .00000940  00000+0  10424-3 0  9997
2 24925  86.3380   1.7394 0009272  84.5091 275.7191 14.86044348432578
DUMMY MASS 2 [-]        
1 24926U 97048B   24044.17235574  .00000916  00000+0  10209-3 0  9999
2 24926  86.3380   3.2518 0010074  92.7488 267.4889 14.85803939432364
IRIDIUM 29 [-]          
1 24944U 97051A   24044.13765805  .00000748  00000+0  25331-3 0  9999
2 24944  86.4004 349.3184 0002411  83.2036 276.9435 14.35553786383163
IRIDIUM 33 [-]          
1 24946U 97051C   24044.39796637  .00000723  00000+0  25073-3 0  9992
2 24946  86.3919 348.4714 0006132 226.6869 133.3816 14.34258134382536
IRIDIUM 28 [-]          
1 24948U 97051E   24044.36351730  .00001026  00000+0  34329-3 0  9993
2 24948  86.4010 347.0220 0001762  89.0806 271.0593 14.36503521383576
