<?xml version="1.0" encoding="UTF-8"?>
<ndm xmlns:xsi="http://www.w3.org/2001/XMLSchema-instance" xsi:noNamespaceSchemaLocation="https://sanaregistry.org/r/ndmxml_unqualified/ndmxml-2.0.0-master-2.0.xsd">
<omm id="CCSDS_OMM_VERS" version="2.0">
<header><CREATION_DATE/><ORIGINATOR/></header><body><segment><metadata><OBJECT_NAME>IRIDIUM 921 [-]</OBJECT_NAME><OBJECT_ID>1997-034E</OBJECT_ID><CENTER_NAME>EARTH</CENTER_NAME><REF_FRAME>TEME</REF_FRAME><TIME_SYSTEM>UTC</TIME_SYSTEM><MEAN_ELEMENT_THEORY>SGP4</MEAN_ELEMENT_THEORY></metadata><data><meanElements><EPOCH>2024-02-13T08:52:57.996480</EPOCH><MEAN_MOTION>15.31646234</MEAN_MOTION><ECCENTRICITY>.0006275</ECCENTRICITY><INCLINATION>86.3894</INCLINATION><RA_OF_ASC_NODE>349.4986</RA_OF_ASC_NODE><ARG_OF_PERICENTER>46.1434</ARG_OF_PERICENTER><MEAN_ANOMALY>314.0333</MEAN_ANOMALY></meanElements><tleParameters><EPHEMERIS_TYPE>0</EPHEMERIS_TYPE><CLASSIFICATION_TYPE>U</CLASSIFICATION_TYPE><NORAD_CAT_ID>24873</NORAD_CAT_ID><ELEMENT_SET_NO>999</ELEMENT_SET_NO><REV_AT_EPOCH>45631</REV_AT_EPOCH><BSTAR>.10695E-2</BSTAR><MEAN_MOTION_DOT>.32803E-3</MEAN_MOTION_DOT><MEAN_MOTION_DDOT>0</MEAN_MOTION_DDOT></tleParameters></data></segment></body></omm>
<omm id="CCSDS_OMM_VERS" version="2.0">
<header><CREATION_DATE/><ORIGINATOR/></header><body><segment><metadata><OBJECT_NAME>IRIDIUM 26 [-]</OBJECT_NAME><OBJECT_ID>1997-043A</OBJECT_ID><CENTER_NAME>EARTH</CENTER_NAME><REF_FRAME>TEME</REF_FRAME><TIME_SYSTEM>UTC</TIME_SYSTEM><MEAN_ELEMENT_THEORY>SGP4</MEAN_ELEMENT_THEORY></metadata><data><meanElements><EPOCH>2024-02-13T11:37:30.705024</EPOCH><MEAN_MOTION>14.36205405</MEAN_MOTION><ECCENTRICITY>.0001916</ECCENTRICITY><INCLINATION>86.3985</INCLINATION><RA_OF_ASC_NODE>316.1075</RA_OF_ASC_NODE><ARG_OF_PERICENTER>83.3547</ARG_OF_PERICENTER><MEAN_ANOMALY>276.7868</MEAN_ANOMALY></meanElements><tleParameters><EPHEMERIS_TYPE>0</EPHEMERIS_TYPE><CLASSIFICATION_TYPE>U</CLASSIFICATION_TYPE><NORAD_CAT_ID>24903</NORAD_CAT_ID><ELEMENT_SET_NO>999</ELEMENT_SET_NO><REV_AT_EPOCH>38690</REV_AT_EPOCH><BSTAR>.3062E-3</BSTAR><MEAN_MOTION_DOT>.912E-5</MEAN_MOTION_DOT><MEAN_MOTION_DDOT>0</MEAN_MOTION_DDOT></tleParameters></data></segment></body></omm>
<omm id="CCSDS_OMM_VERS" version="2.0">
<header><CREATION_DATE/><ORIGINATOR/></header><body><segment><metadata><OBJECT_NAME>IRIDIUM 22 [-]</OBJECT_NAME><OBJECT_ID>1997-043E</OBJECT_ID><CENTER_NAME>EARTH</CENTER_NAME><REF_FRAME>TEME</REF_FRAME><TIME_SYSTEM>UTC</TIME_SYSTEM><MEAN_ELEMENT_THEORY>SGP4</MEAN_ELEMENT_THEORY></metadata><data><meanElements><EPOCH>2024-02-13T03:57:35.048736</EPOCH><MEAN_MOTION>14.35101313</MEAN_MOTION><ECCENTRICITY>.0002168</ECCENTRICITY><INCLINATION>86.3993</INCLINATION><RA_OF_ASC_NODE>319.3785</RA_OF_ASC_NODE><ARG_OF_PERICENTER>84.4419</ARG_OF_PERICENTER><MEAN_ANOMALY>275.7025</MEAN_ANOMALY></meanElements><tleParameters><EPHEMERIS_TYPE>0</EPHEMERIS_TYPE><CLASSIFICATION_TYPE>U</CLASSIFICATION_TYPE><NORAD_CAT_ID>24907</NORAD_CAT_ID><ELEMENT_SET_NO>999</ELEMENT_SET_NO><REV_AT_EPOCH>38646</REV_AT_EPOCH><BSTAR>.2532E-3</BSTAR><MEAN_MOTION_DOT>.742E-5</MEAN_MOTION_DOT><MEAN_MOTION_DDOT>0</MEAN_MOTION_DDOT></tleParameters></data></segment></body></omm>
<omm id="CCSDS_OMM_VERS" version="2.0">
<header><CREATION_DATE/><ORIGINATOR/></header><body><segment><metadata><OBJECT_NAME>DUMMY MASS 1 [-]</OBJECT_NAME><OBJECT_ID>1997-048A</OBJECT_ID><CENTER_NAME>EARTH</CENTER_NAME><REF_FRAME>TEME</REF_FRAME><TIME_SYSTEM>UTC</TIME_SYSTEM><MEAN_ELEMENT_THEORY>SGP4</MEAN_ELEMENT_THEORY></metadata><data><meanElements><EPOCH>2024-02-13T03:44:38.668704</EPOCH><MEAN_MOTION>14.86044348</MEAN_MOTION><ECCENTRICITY>.0009272</ECCENTRICITY><INCLINATION>86.3380</INCLINATION><RA_OF_ASC_NODE>1.7394</RA_OF_ASC_NODE><ARG_OF_PERICENTER>84.5091</ARG_OF_PERICENTER><MEAN_ANOMALY>275.7191</MEAN_ANOMALY></meanElements><tleParameters><EPHEMERIS_TYPE>0</EPHEMERIS_TYPE><CLASSIFICATION_TYPE>U</CLASSIFICATION_TYPE><NORAD_CAT_ID>24925</NORAD_CAT_ID><ELEMENT_SET_NO>999</ELEMENT_SET_NO><REV_AT_EPOCH>43257</REV_AT_EPOCH><BSTAR>.10424E-3</BSTAR><MEAN_MOTION_DOT>.94E-5</MEAN_MOTION_DOT><MEAN_MOTION_DDOT>0</MEAN_MOTION_DDOT></tleParameters></data></segment></body></omm>
<omm id="CCSDS_OMM_VERS" version="2.0">
<header><CREATION_DATE/><ORIGINATOR/></header><body><segment><metadata><OBJECT_NAME>DUMMY MASS 2 [-]</OBJECT_NAME><OBJECT_ID>1997-048B</OBJECT_ID><CENTER_NAME>EARTH</CENTER_NAME><REF_FRAME>TEME</REF_FRAME><TIME_SYSTEM>UTC</TIME_SYSTEM><MEAN_ELEMENT_THEORY>SGP4</MEAN_ELEMENT_THEORY></metadata><data><meanElements><EPOCH>2024-02-13T04:08:11.535936</EPOCH><MEAN_MOTION>14.85803939</MEAN_MOTION><ECCENTRICITY>.0010074</ECCENTRICITY><INCLINATION>86.3380</INCLINATION><RA_OF_ASC_NODE>3.2518</RA_OF_ASC_NODE><ARG_OF_PERICENTER>92.7488</ARG_OF_PERICENTER><MEAN_ANOMALY>267.4889</MEAN_ANOMALY></meanElements><tleParameters><EPHEMERIS_TYPE>0</EPHEMERIS_TYPE><CLASSIFICATION_TYPE>U</CLASSIFICATION_TYPE><NORAD_CAT_ID>24926</NORAD_CAT_ID><ELEMENT_SET_NO>999</ELEMENT_SET_NO><REV_AT_EPOCH>43236</REV_AT_EPOCH><BSTAR>.10209E-3</BSTAR><MEAN_MOTION_DOT>.916E-5</MEAN_MOTION_DOT><MEAN_MOTION_DDOT>0</MEAN_MOTION_DDOT></tleParameters></data></segment></body></omm>
<omm id="CCSDS_OMM_VERS" version="2.0">
<header><CREATION_DATE/><ORIGINATOR/></header><body><segment><metadata><OBJECT_NAME>IRIDIUM 29 [-]</OBJECT_NAME><OBJECT_ID>1997-051A</OBJECT_ID><CENTER_NAME>EARTH</CENTER_NAME><REF_FRAME>TEME</REF_FRAME><TIME_SYSTEM>UTC</TIME_SYSTEM><MEAN_ELEMENT_THEORY>SGP4</MEAN_ELEMENT_THEORY></metadata><data><meanElements><EPOCH>2024-02-13T03:18:13.655520</EPOCH><MEAN_MOTION>14.35553786</MEAN_MOTION><ECCENTRICITY>.0002411</ECCENTRICITY><INCLINATION>86.4004</INCLINATION><RA_OF_ASC_NODE>349.3184</RA_OF_ASC_NODE><ARG_OF_PERICENTER>83.2036</ARG_OF_PERICENTER><MEAN_ANOMALY>276.9435</MEAN_ANOMALY></meanElements><tleParameters><EPHEMERIS_TYPE>0</EPHEMERIS_TYPE><CLASSIFICATION_TYPE>U</CLASSIFICATION_TYPE><NORAD_CAT_ID>24944</NORAD_CAT_ID><ELEMENT_SET_NO>999</ELEMENT_SET_NO><REV_AT_EPOCH>38316</REV_AT_EPOCH><BSTAR>.25331E-3</BSTAR><MEAN_MOTION_DOT>.748E-5</MEAN_MOTION_DOT><MEAN_MOTION_DDOT>0</MEAN_MOTION_DDOT></tleParameters></data></segment></body></omm>
<omm id="CCSDS_OMM_VERS" version="2.0">
<header><CREATION_DATE/><ORIGINATOR/></header><body><segment><metadata><OBJECT_NAME>IRIDIUM 33 [-]</OBJECT_NAME><OBJECT_ID>1997-051C</OBJECT_ID><CENTER_NAME>EARTH</CENTER_NAME><REF_FRAME>TEME</REF_FRAME><TIME_SYSTEM>UTC</TIME_SYSTEM><MEAN_ELEMENT_THEORY>SGP4</MEAN_ELEMENT_THEORY></metadata><data><meanElements><EPOCH>2024-02-13T09:33:04.294368</EPOCH><MEAN_MOTION>14.34258134</MEAN_MOTION><ECCENTRICITY>.0006132</ECCENTRICITY><INCLINATION>86.3919</INCLINATION><RA_OF_ASC_NODE>348.4714</RA_OF_ASC_NODE><ARG_OF_PERICENTER>226.6869</ARG_OF_PERICENTER><MEAN_ANOMALY>133.3816</MEAN_ANOMALY></meanElements><tleParameters><EPHEMERIS_TYPE>0</EPHEMERIS_TYPE><CLASSIFICATION_TYPE>U</CLASSIFICATION_TYPE><NORAD_CAT_ID>24946</NORAD_CAT_ID><ELEMENT_SET_NO>999</ELEMENT_SET_NO><REV_AT_EPOCH>38253</REV_AT_EPOCH><BSTAR>.25073E-3</BSTAR><MEAN_MOTION_DOT>.723E-5</MEAN_MOTION_DOT><MEAN_MOTION_DDOT>0</MEAN_MOTION_DDOT></tleParameters></data></segment></body></omm>
<omm id="CCSDS_OMM_VERS" version="2.0">
<header><CREATION_DATE/><ORIGINATOR/></header><body><segment><metadata><OBJECT_NAME>IRIDIUM 28 [-]</OBJECT_NAME><OBJECT_ID>1997-051E</OBJECT_ID><CENTER_NAME>EARTH</CENTER_NAME><REF_FRAME>TEME</REF_FRAME><TIME_SYSTEM>UTC</TIME_SYSTEM><MEAN_ELEMENT_THEORY>SGP4</MEAN_ELEMENT_THEORY></metadata><data><meanElements><EPOCH>2024-02-13T08:43:27.894720</EPOCH><MEAN_MOTION>14.36503521</MEAN_MOTION><ECCENTRICITY>.0001762</ECCENTRICITY><INCLINATION>86.4010</INCLINATION><RA_OF_ASC_NODE>347.0220</RA_OF_ASC_NODE><ARG_OF_PERICENTER>89.0806</ARG_OF_PERICENTER><MEAN_ANOMALY>271.0593</MEAN_ANOMALY></meanElements><tleParameters><EPHEMERIS_TYPE>0</EPHEMERIS_TYPE><CLASSIFICATION_TYPE>U</CLASSIFICATION_TYPE><NORAD_CAT_ID>24948</NORAD_CAT_ID><ELEMENT_SET_NO>999</ELEMENT_SET_NO><REV_AT_EPOCH>38357</REV_AT_EPOCH><BSTAR>.34329E-3</BSTAR><MEAN_MOTION_DOT>.1026E-4</MEAN_MOTION_DOT><MEAN_MOTION_DDOT>0</MEAN_MOTION_DDOT></tleParameters></data></segment></body></omm>

</ndm>
